TITAN 3C TRANSTAGE R/B  
1 50000U 70027C   26074.38447299  .00000153  00000+0  00000+0 0  9993
2 50000  44.2656  70.1147 7023988 199.2650   0.1013  0.44284925 90757
EXPRESS AMU-7           
1 50001U 21123A   26072.17086352 -.00000243  00000+0  00000+0 0  9992
2 50001   0.0155 235.5757 0000287 209.1893 292.5399  1.00272454 15574
EXPRESS AMU-3           
1 50002U 21123B   26074.23378365 -.00000322  00000+0  00000+0 0  9998
2 50002   0.0205 218.2593 0000180 282.9875 218.7376  1.00271461  6086
BREEZE-M R/B            
1 50003U 21123C   26073.37830917 -.00000135  00000+0  00000+0 0  9991
2 50003   5.5459  87.9924 4425275  50.5094 341.3580  1.07952459 16822
TIANLIAN 2-02           
1 50005U 21124A   26073.67366958 -.00000015  00000+0  00000+0 0  9993
2 50005   0.5553  87.9364 0004048 213.8775 283.9447  1.00272901 15674
TURKSAT 5B              
1 50212U 21126A   26072.72111013  .00000146  00000+0  00000+0 0  9994
2 50212   0.0748 331.7720 0005187   3.0563 138.1028  1.00273400 15345
INMARSAT 6-F1           
1 50319U 21128A   26072.71795341 -.00000172  00000+0  00000+0 0  9995
2 50319   0.0043 135.0725 0000373 317.5308  60.9391  1.00270711 15306
SHIYAN-12 01 (SY-12 01) 
1 50321U 21129A   26073.81680735 -.00000341  00000+0  00000+0 0  9999
2 50321   3.4293  81.2012 0003533 254.5716 262.7143  1.00091504 15553
SHIYAN-12 02 (SY-12 02) 
1 50322U 21129B   26073.73092772  .00000139  00000+0  00000+0 0  9993
2 50322   3.4293  81.2185 0000080  88.7509 285.1761  1.00452507 15555
TJS-9                   
1 50574U 21135A   26074.34884280 -.00000300  00000+0  00000+0 0  9991
2 50574   0.0627 100.9616 0004621  42.5553 292.2323  1.00270804 15481
GOES 18                 
1 51850U 22021A   26074.01225098  .00000096  00000+0  00000+0 0  9995
2 51850   0.0356  39.0500 0000826  24.7142 336.2554  1.00272979  5648
ATLAS 5 CENTAUR DEB     
1 52045U 18079GP  26073.54610015 -.00000095  00000+0  00000+0 0  9994
2 52045  13.1731  66.4566 4573136 244.1661  62.3569  1.72868189 29057
MERIDIAN 10             
1 52145U 22030A   26071.76835582  .00000247  00000+0  00000+0 0  9995
2 52145  62.6661 151.0920 6759863 272.9485  17.8257  2.00612680 29102
FREGAT R/B              
1 52146U 22030B   26073.30222402  .00001150  00000+0  00000+0 0  9993
2 52146  62.6587 145.4619 6840986 274.4749  16.6376  2.00100965 29117
ZHONGXING-6D            
1 52255U 22038A   26072.17849552  .00000000  00000+0  00000+0 0  9990
2 52255   0.0313 195.5655 0002052 117.1283  47.2889  1.00265840 14465
NILESAT 301             
1 52817U 22061A   26074.20888446  .00000000  00000+0  00000+0 0  9991
2 52817   0.0228  31.1303 0005760 326.9366 242.9544  1.00269246 13791
FALCON 9 R/B            
1 52818U 22061B   26073.05546637  .00000990  00000+0  17002-2 0  9998
2 52818  18.8022   0.0772 7636767 202.6474  85.8120  1.81980758 24591
CMS-02 (GSAT 24)        
1 52903U 22067A   26073.94151665 -.00000165  00000+0  00000+0 0  9992
2 52903   0.0185 216.3743 0002142  87.8806 290.2338  1.00270611 13668
MEASAT 3D               
1 52904U 22067B   26074.08581727 -.00000242  00000+0  00000+0 0  9991
2 52904   0.0488 330.0721 0003048  10.3055 314.7232  1.00271467 13708
SES-22                  
1 52933U 22071A   26074.18279767  .00000103  00000+0  00000+0 0  9992
2 52933   0.0175  99.6203 0000987 255.9997 103.9659  1.00273792  6589
WFOV (USA 332)          
1 52940U 22073A   26073.98864176 -.00000361  00000+0  00000+0 0  9990
2 52940   3.4675  79.7366 0001290 224.9909 343.0202  1.00269197 13421
ATLAS 5 CENTAUR DEB     
1 52973U 18079GX  26073.56451711 -.00000084  00000+0  00000+0 0  9990
2 52973  12.6954  75.9684 4541933 230.0856  80.3481  1.71412319 28808
TIANLIAN 2-03           
1 53100U 22078A   26074.21235113  .00000071  00000+0  00000+0 0  9991
2 53100   0.4326  73.6250 0003292 257.9513 288.2328  1.00271155 13602
SBIRS GEO-6 (USA 336)   
1 53355U 22092A   26074.23783125 -.00000294  00000+0  00000+0 0  9990
2 53355   3.4201 315.9713 0002036  38.8403  42.6333  1.00271327 13298
EUTELSAT KONNECT VHTS   
1 53765U 22110A   26074.21079112  .00000016  00000+0  00000+0 0  9999
2 53765   0.0579 104.1049 0002831 226.3647 280.9193  1.00269379  5893
ARIANE 5 R/B            
1 53766U 22110B   26074.00873164  .00002837 -80148-6  31992-3 0  9996
2 53766   4.4836 231.8728 7919468  22.3908 358.2792  1.54474321 10179
ZHONGXING-1E            
1 53813U 22112A   26071.80185729 -.00000150  00000+0  00000+0 0  9999
2 53813   0.0554 305.0129 0002568 354.3662 241.1166  1.00274038 12881
SES-20                  
1 53960U 22123A   26072.90628869 -.00000101  00000+0  00000+0 0  9999
2 53960   0.0192 104.9887 0001720 326.8603 322.8278  1.00270457 12575
SES-21                  
1 53961U 22123B   26074.25568464  .00000069  00000+0  00000+0 0  9996
2 53961   0.0288  67.4686 0001063 280.5175 145.9027  1.00270508  6275
GALAXY 33 (G-33)        
1 54026U 22128A   26072.39905773  .00000079  00000+0  00000+0 0  9996
2 54026   0.0138 105.0382 0001794 258.0759 178.5705  1.00271687 12780
GALAXY 34 (G-34)        
1 54027U 22128B   26074.18479101  .00000058  00000+0  00000+0 0  9994
2 54027   0.0194 121.2654 0001384 235.7436 113.2853  1.00271715 12977
ANGOSAT 2               
1 54033U 22131A   26071.79024390  .00000136  00000+0  00000+0 0  9992
2 54033   0.0191 162.9381 0000617 294.1226  20.8366  1.00271033 12519
EUTELSAT HOTBIRD 13F    
1 54048U 22134A   26074.27961642  .00000086  00000+0  00000+0 0  9991
2 54048   0.0604 291.4865 0002019  74.0949 280.9548  1.00271779 12433
FALCON 9 R/B            
1 54049U 22134B   26071.84251237 -.00000101  00000+0 -41415-3 0  9993
2 54049  27.5402  46.4088 8000870 240.7762  20.1281  1.35651136 16805
LDPE-2                  
1 54219U 22144A   26073.94758336 -.00000359  00000+0  00000+0 0  9993
2 54219   5.4123  64.2151 0000169 261.7596 301.6951  1.00552421 10892
COSMOS 2563             
1 54223U 22145A   26070.48621898 -.00001098  00000+0  00000+0 0  9998
2 54223  63.3678 292.9512 7086948 269.4929  16.4063  2.00596564 24603
FREGAT R/B              
1 54224U 22145B   26069.33546748  .00001319  00000+0  00000+0 0  9996
2 54224  63.6893 292.8583 7086249 265.9276  17.7314  2.02023051 24738
EUTELSAT HOTBIRD 13G    
1 54225U 22146A   26074.27961642  .00000086  00000+0  00000+0 0  9991
2 54225   0.0479 233.2617 0001992 302.2114 111.0527  1.00270845  6525
FALCON 9 R/B            
1 54226U 22146B   26073.11623070 -.00000113  00000+0 -10150-4 0  9999
2 54226  26.8873  69.8503 7964621 231.9270  26.9085  1.39821572 16370
ZHONGXING-19            
1 54230U 22148A   26074.24259793 -.00000082  00000+0  00000+0 0  9990
2 54230   0.0374 267.7092 0002351  85.4513  70.2106  1.00271721 12437
GALAXY 31 (G-31)        
1 54243U 22153A   26074.11502405  .00000012  00000+0  00000+0 0  9999
2 54243   0.0185 129.0634 0001397 240.5767  83.4825  1.00271947  6186
GALAXY 32 (G-32)        
1 54244U 22153B   26073.05128264 -.00000175  00000+0  00000+0 0  9990
2 54244   0.0167 115.0372 0002962 247.5224  96.5681  1.00271848 12198
EUTELSAT 10B            
1 54259U 22157A   26074.27961642  .00000067  00000+0  00000+0 0  9999
2 54259   0.0578 101.8720 0002150   5.8620 175.7922  1.00270181 12089
FALCON 9 R/B            
1 54260U 22157B   26073.89301118  .00009143  00000+0  43238-2 0  9991
2 54260  22.0083   6.4421 7756675 328.8188   2.6765  1.71018638 17764
GALAXY 35 (G-35)        
1 54741U 22170A   26074.15598279 -.00000163  00000+0  00000+0 0  9997
2 54741   0.0165 130.5549 0001947 225.6003 139.6399  1.00272048 11951
GALAXY 36 (G-36)        
1 54742U 22170B   26073.90745652 -.00000186  00000+0  00000+0 0  9994
2 54742   0.0125 177.3104 0002287 230.5457   2.3380  1.00271974 11829
METEOSAT-12 (MTG-I1)    
1 54743U 22170C   26074.28151144 -.00000008  00000+0  00000+0 0  9997
2 54743   0.7124  23.0968 0001756 290.7971 319.9822  1.00271392 12036
SHIJIAN-23 (SJ-23)      
1 55131U 23002A   26073.81085941 -.00000261  00000+0  00000+0 0  9994
2 55131   3.4734  79.5130 0005716 264.9677 257.3754  1.00483612 11564
APSTAR-6E               
1 55239U 23005A   26071.66960336 -.00000318  00000+0  00000+0 0  9990
2 55239   0.0323 232.8508 0000908 102.4149 210.0395  1.00268338 17728
USA 342                 
1 55263U 23008A   26072.14694340  .00000000  00000+0  00000+0 0  9990
2 55263   0.0142 169.8190 0000514 217.1614 220.5363  1.00270806 11553
ELEKTRO-L 4             
1 55506U 23016A   26074.05987509 -.00000059  00000+0  00000+0 0  9998
2 55506   0.0790 302.8746 0001662 348.1377  68.9528  1.00272793 11389
AMAZONAS NEXUS          
1 55508U 23017A   26073.09696675 -.00000283  00000+0  00000+0 0  9994
2 55508   0.0440  33.2943 0004953 340.1740 132.1484  1.00270142  6092
INMARSAT 6-F2           
1 55683U 23022A   26074.26894470 -.00000215  00000+0  00000+0 0  9992
2 55683   5.2860  35.8885 3073685 214.1360 334.6899  1.00955738  9601
ZHONGXING-26            
1 55686U 23023A   26072.88011523 -.00000354  00000+0  00000+0 0  9996
2 55686   0.0613  69.8631 0003831 337.2004 206.3891  1.00269153 11276
LUCH-5X (OLYMP-K 2)     
1 55841U 23031A   26073.78999039  .00000032  00000+0  00000+0 0  9997
2 55841   0.0268  90.9514 0001656 120.0527 307.7537  1.00275467 10997
BREEZE-M R/B            
1 55842U 23031B   26073.97567922 -.00000053  00000+0  00000+0 0  9995
2 55842   2.5855  80.6344 0067143   7.3731 353.2174  0.98959552 10848
ATLAS 5 CENTAUR DEB     
1 55850U 18079HC  26072.53619092 -.00000169  00000+0  00000+0 0  9995
2 55850  13.4324  36.1010 5080145 311.5371  14.7617  1.79289398 23284
GAOFEN-13 02            
1 55912U 23036A   26073.62541693 -.00000218  00000+0  00000+0 0  9990
2 55912   1.0291 348.9685 0005000 336.5456 220.1120  1.00273057 11147
SES-18                  
1 55970U 23038A   26074.14928267 -.00000102  00000+0  00000+0 0  9992
2 55970   0.0377 265.2265 0002005  53.8956 164.2649  1.00271883 11167
